{"type": "FeatureCollection", "features": [ {"type": "Feature", "properties": {"norad_id": 66969, "name": "STARLINK-36149", "group": "last-30-days", "lat": -32.88574447251725, "lon": -42.480871001886136, "alt_km": 367.9202074036657, "timestamp": "2025-12-24T18:55:54.778329+00:00", "meta": {"OBJECT_NAME": "STARLINK-36149", "OBJECT_ID": "2025-288L", "EPOCH": "2025-12-24T06:00:02.000160", "MEAN_MOTION": 15.69810473, "ECCENTRICITY": 0.0001367, "INCLINATION": 43.0003, "RA_OF_ASC_NODE": 96.8211, "ARG_OF_PERICENTER": 280.3916, "MEAN_ANOMALY": 145.885, "EPHEMERIS_TYPE": 0, "CLASSIFICATION_TYPE": "U", "NORAD_CAT_ID": 66969, "ELEMENT_SET_NO": 999, "REV_AT_EPOCH": 368, "BSTAR": -0.01760417, "MEAN_MOTION_DOT": -0.01917917, "MEAN_MOTION_DDOT": 0}, "tle": {"line1": "1 66969U 25288L   25358.25002315 -.01917917  00000+0 -17604-1 0  9997", "line2": "2 66969  43.0003  96.8211 0001367 280.3916 145.8850 15.69810473  3683"}}, "geometry": {"type": "Point", "coordinates": [-42.480871001886136, -32.88574447251725]}}, {"type": "Feature", "properties": {"norad_id": 66970, "name": "STARLINK-35703", "group": "last-30-days", "lat": -36.375847891532345, "lon": -34.205680361588904, "alt_km": 367.98561195366256, "timestamp": "2025-12-24T18:55:54.778343+00:00", "meta": {"OBJECT_NAME": "STARLINK-35703", "OBJECT_ID": "2025-288M", "EPOCH": "2025-12-24T06:00:02.000160", "MEAN_MOTION": 15.69810819, "ECCENTRICITY": 0.0001308, "INCLINATION": 43.0001, "RA_OF_ASC_NODE": 96.8016, "ARG_OF_PERICENTER": 279.1711, "MEAN_ANOMALY": 154.7731, "EPHEMERIS_TYPE": 0, "CLASSIFICATION_TYPE": "U", "NORAD_CAT_ID": 66970, "ELEMENT_SET_NO": 999, "REV_AT_EPOCH": 368, "BSTAR": -0.017598655, "MEAN_MOTION_DOT": -0.01917366, "MEAN_MOTION_DDOT": 0}, "tle": {"line1": "1 66970U 25288M   25358.25002315 -.01917366  00000+0 -17599-1 0  9990", "line2": "2 66970  43.0001  96.8016 0001308 279.1711 154.7731 15.69810819  3681"}}, "geometry": {"type": "Point", "coordinates": [-34.205680361588904, -36.375847891532345]}}, {"type": "Feature", "properties": {"norad_id": 66971, "name": "STARLINK-35678", "group": "last-30-days", "lat": -28.891401796483, "lon": -50.08485749408107, "alt_km": 367.7720121572547, "timestamp": "2025-12-24T18:55:54.778353+00:00", "meta": {"OBJECT_NAME": "STARLINK-35678", "OBJECT_ID": "2025-288N", "EPOCH": "2025-12-24T06:00:02.000160", "MEAN_MOTION": 15.69808334, "ECCENTRICITY": 0.00014585, "INCLINATION": 43.0003, "RA_OF_ASC_NODE": 96.8411, "ARG_OF_PERICENTER": 279.4994, "MEAN_ANOMALY": 139.1142, "EPHEMERIS_TYPE": 0, "CLASSIFICATION_TYPE": "U", "NORAD_CAT_ID": 66971, "ELEMENT_SET_NO": 999, "REV_AT_EPOCH": 368, "BSTAR": -0.017618016, "MEAN_MOTION_DOT": -0.01919168, "MEAN_MOTION_DDOT": 0}, "tle": {"line1": "1 66971U 25288N   25358.25002315 -.01919168  00000+0 -17618-1 0  9995", "line2": "2 66971  43.0003  96.8411 0001458 279.4994 139.1142 15.69808334  3687"}}, "geometry": {"type": "Point", "coordinates": [-50.08485749408107, -28.891401796483]}}, {"type": "Feature", "properties": {"norad_id": 66972, "name": "STARLINK-34846", "group": "last-30-days", "lat": -29.93191219685931, "lon": -48.241143756248036, "alt_km": 367.77259187037816, "timestamp": "2025-12-24T18:55:54.778362+00:00", "meta": {"OBJECT_NAME": "STARLINK-34846", "OBJECT_ID": "2025-288P", "EPOCH": "2025-12-24T06:00:02.000160", "MEAN_MOTION": 15.69816902, "ECCENTRICITY": 0.00014041, "INCLINATION": 43.0001, "RA_OF_ASC_NODE": 96.8361, "ARG_OF_PERICENTER": 277.6672, "MEAN_ANOMALY": 142.8534, "EPHEMERIS_TYPE": 0, "CLASSIFICATION_TYPE": "U", "NORAD_CAT_ID": 66972, "ELEMENT_SET_NO": 999, "REV_AT_EPOCH": 368, "BSTAR": -0.017658712, "MEAN_MOTION_DOT": -0.01923668, "MEAN_MOTION_DDOT": 0}, "tle": {"line1": "1 66972U 25288P   25358.25002315 -.01923668  00000+0 -17659-1 0  9991", "line2": "2 66972  43.0001  96.8361 0001404 277.6672 142.8534 15.69816902  3680"}}, "geometry": {"type": "Point", "coordinates": [-48.241143756248036, -29.93191219685931]}}, {"type": "Feature", "properties": {"norad_id": 66973, "name": "STARLINK-35778", "group": "last-30-days", "lat": -30.945770650396767, "lon": -46.35973543424233, "alt_km": 367.75498054669606, "timestamp": "2025-12-24T18:55:54.778372+00:00", "meta": {"OBJECT_NAME": "STARLINK-35778", "OBJECT_ID": "2025-288Q", "EPOCH": "2025-12-24T06:00:02.000160", "MEAN_MOTION": 15.69816122, "ECCENTRICITY": 0.00014118, "INCLINATION": 43.0004, "RA_OF_ASC_NODE": 96.8316, "ARG_OF_PERICENTER": 275.6451, "MEAN_ANOMALY": 146.7936, "EPHEMERIS_TYPE": 0, "CLASSIFICATION_TYPE": "U", "NORAD_CAT_ID": 66973, "ELEMENT_SET_NO": 999, "REV_AT_EPOCH": 368, "BSTAR": -0.017653324, "MEAN_MOTION_DOT": -0.01923098, "MEAN_MOTION_DDOT": 0}, "tle": {"line1": "1 66973U 25288Q   25358.25002315 -.01923098  00000+0 -17653-1 0  9993", "line2": "2 66973  43.0004  96.8316 0001411 275.6451 146.7936 15.69816122  3688"}}, "geometry": {"type": "Point", "coordinates": [-46.35973543424233, -30.945770650396767]}}, {"type": "Feature", "properties": {"norad_id": 66974, "name": "STARLINK-35780", "group": "last-30-days", "lat": -31.9298136772087, "lon": -44.44186143567972, "alt_km": 367.96602810055447, "timestamp": "2025-12-24T18:55:54.778384+00:00", "meta": {"OBJECT_NAME": "STARLINK-35780", "OBJECT_ID": "2025-288R", "EPOCH": "2025-12-24T06:00:02.000160", "MEAN_MOTION": 15.69811513, "ECCENTRICITY": 0.00012877, "INCLINATION": 43.0004, "RA_OF_ASC_NODE": 96.8269, "ARG_OF_PERICENTER": 281.5352, "MEAN_ANOMALY": 142.826, "EPHEMERIS_TYPE": 0, "CLASSIFICATION_TYPE": "U", "NORAD_CAT_ID": 66974, "ELEMENT_SET_NO": 999, "REV_AT_EPOCH": 368, "BSTAR": -0.017643895, "MEAN_MOTION_DOT": -0.01921766, "MEAN_MOTION_DDOT": 0}, "tle": {"line1": "1 66974U 25288R   25358.25002315 -.01921766  00000+0 -17644-1 0  9994", "line2": "2 66974  43.0004  96.8269 0001287 281.5352 142.8260 15.69811513  3689"}}, "geometry": {"type": "Point", "coordinates": [-44.44186143567972, -31.9298136772087]}}, {"type": "Feature", "properties": {"norad_id": 66975, "name": "STARLINK-35777", "group": "last-30-days", "lat": -33.81043538210642, "lon": -40.47593573155809, "alt_km": 367.902355629466, "timestamp": "2025-12-24T18:55:54.778394+00:00", "meta": {"OBJECT_NAME": "STARLINK-35777", "OBJECT_ID": "2025-288S", "EPOCH": "2025-12-24T06:00:02.000160", "MEAN_MOTION": 15.69816575, "ECCENTRICITY": 0.0001342, "INCLINATION": 43.0003, "RA_OF_ASC_NODE": 96.8168, "ARG_OF_PERICENTER": 277.9604, "MEAN_ANOMALY": 150.228, "EPHEMERIS_TYPE": 0, "CLASSIFICATION_TYPE": "U", "NORAD_CAT_ID": 66975, "ELEMENT_SET_NO": 999, "REV_AT_EPOCH": 368, "BSTAR": -0.017652525, "MEAN_MOTION_DOT": -0.01923001, "MEAN_MOTION_DDOT": 0}, "tle": {"line1": "1 66975U 25288S   25358.25002315 -.01923001  00000+0 -17653-1 0  9999", "line2": "2 66975  43.0003  96.8168 0001342 277.9604 150.2280 15.69816575  3686"}}, "geometry": {"type": "Point", "coordinates": [-40.47593573155809, -33.81043538210642]}}, {"type": "Feature", "properties": {"norad_id": 66976, "name": "STARLINK-35772", "group": "last-30-days", "lat": 5.646421389174507, "lon": -91.46354635329476, "alt_km": 426.5899517892685, "timestamp": "2025-12-24T18:55:54.778405+00:00", "meta": {"OBJECT_NAME": "STARLINK-35772", "OBJECT_ID": "2025-288T", "EPOCH": "2025-12-24T06:00:02.000160", "MEAN_MOTION": 15.48882631, "ECCENTRICITY": 0.00014775, "INCLINATION": 43.0004, "RA_OF_ASC_NODE": 97.7649, "ARG_OF_PERICENTER": 270.1854, "MEAN_ANOMALY": 135.9856, "EPHEMERIS_TYPE": 0, "CLASSIFICATION_TYPE": "U", "NORAD_CAT_ID": 66976, "ELEMENT_SET_NO": 999, "REV_AT_EPOCH": 368, "BSTAR": -0.044447723, "MEAN_MOTION_DOT": -0.02170101, "MEAN_MOTION_DDOT": 0}, "tle": {"line1": "1 66976U 25288T   25358.25002315 -.02170101  00000+0 -44448-1 0  9998", "line2": "2 66976  43.0004  97.7649 0001477 270.1854 135.9856 15.48882631  3685"}}, "geometry": {"type": "Point", "coordinates": [-91.46354635329476, 5.646421389174507]}}, {"type": "Feature", "properties": {"norad_id": 66977, "name": "STARLINK-35770", "group": "last-30-days", "lat": -34.70057968583355, "lon": -38.4306511384455, "alt_km": 368.0173507535792, "timestamp": "2025-12-24T18:55:54.778415+00:00", "meta": {"OBJECT_NAME": "STARLINK-35770", "OBJECT_ID": "2025-288U", "EPOCH": "2025-12-24T06:00:02.000160", "MEAN_MOTION": 15.69812723, "ECCENTRICITY": 0.00012485, "INCLINATION": 43.0002, "RA_OF_ASC_NODE": 96.8125, "ARG_OF_PERICENTER": 279.8131, "MEAN_ANOMALY": 150.3004, "EPHEMERIS_TYPE": 0, "CLASSIFICATION_TYPE": "U", "NORAD_CAT_ID": 66977, "ELEMENT_SET_NO": 999, "REV_AT_EPOCH": 368, "BSTAR": -0.017675242, "MEAN_MOTION_DOT": -0.01924847, "MEAN_MOTION_DDOT": 0}, "tle": {"line1": "1 66977U 25288U   25358.25002315 -.01924847  00000+0 -17675-1 0  9994", "line2": "2 66977  43.0002  96.8125 0001248 279.8131 150.3004 15.69812723  3687"}}, "geometry": {"type": "Point", "coordinates": [-38.4306511384455, -34.70057968583355]}}, {"type": "Feature", "properties": {"norad_id": 66978, "name": "STARLINK-35787", "group": "last-30-days", "lat": -37.15456390894573, "lon": -32.0299023152857, "alt_km": 368.0241269722583, "timestamp": "2025-12-24T18:55:54.778425+00:00", "meta": {"OBJECT_NAME": "STARLINK-35787", "OBJECT_ID": "2025-288V", "EPOCH": "2025-12-24T06:00:02.000160", "MEAN_MOTION": 15.69809276, "ECCENTRICITY": 0.00013703, "INCLINATION": 43.0002, "RA_OF_ASC_NODE": 96.7974, "ARG_OF_PERICENTER": 281.7799, "MEAN_ANOMALY": 154.0859, "EPHEMERIS_TYPE": 0, "CLASSIFICATION_TYPE": "U", "NORAD_CAT_ID": 66978, "ELEMENT_SET_NO": 999, "REV_AT_EPOCH": 368, "BSTAR": -0.017625203, "MEAN_MOTION_DOT": -0.01919863, "MEAN_MOTION_DDOT": 0}, "tle": {"line1": "1 66978U 25288V   25358.25002315 -.01919863  00000+0 -17625-1 0  9992", "line2": "2 66978  43.0002  96.7974 0001370 281.7799 154.0859 15.69809276  3685"}}, "geometry": {"type": "Point", "coordinates": [-32.0299023152857, -37.15456390894573]}}]}